start=new Date('2021-09-30T00:00:00.000Z').valueOf();
sats=[{"PERIAPSIS":"545.640","DECAY_DATE":null,"SEMIMAJOR_AXIS":"6925.367","RA_OF_ASC_NODE":"85.1918","APOAPSIS":"548.824","EPOCH":"2021-09-29T05:08:02.445216","SITE":"AFETR","CENTER_NAME":"EARTH","TLE_LINE2":"2 48355  53.0557  85.1918 0002299  79.9486 280.1763 15.06393965 22489","FILE":"3134986","OBJECT_NAME":"STARLINK-2635","MEAN_ELEMENT_THEORY":"SGP4","TLE_LINE1":"1 48355U 21038C   21272.21391719  .00001229  00000-0  10143-3 0  9992","REF_FRAME":"TEME","MEAN_MOTION_DOT":"0.00001229","NORAD_CAT_ID":"48355","MEAN_ANOMALY":"280.1763","OBJECT_ID":"2021-038C","PERIOD":"95.593","LAUNCH_DATE":"2021-05-04","RCS_SIZE":"LARGE","COUNTRY_CODE":"US","ARG_OF_PERICENTER":"79.9486","CLASSIFICATION_TYPE":"U","EPHEMERIS_TYPE":"0","BSTAR":"0.00010143000000","ELEMENT_SET_NO":"999","MEAN_MOTION_DDOT":"0.0000000000000","MEAN_MOTION":"15.06393965","OBJECT_TYPE":"PAYLOAD","GP_ID":"185794004","TIME_SYSTEM":"UTC","REV_AT_EPOCH":"2248","INCLINATION":"53.0557","ECCENTRICITY":"0.00022990"},{"DECAY_DATE":null,"PERIAPSIS":"546.047","SEMIMAJOR_AXIS":"6925.333","RA_OF_ASC_NODE":"82.7496","TLE_LINE2":"2 48356  53.0671  82.7496 0001662  78.2424 281.8751 15.06405203 23146","APOAPSIS":"548.349","EPOCH":"2021-09-29T17:47:02.438016","SITE":"AFETR","CENTER_NAME":"EARTH","REF_FRAME":"TEME","MEAN_ELEMENT_THEORY":"SGP4","FILE":"3135213","OBJECT_NAME":"STARLINK-2637","TLE_LINE1":"1 48356U 21038D   21272.74100044 -.00000233  00000-0  32684-5 0  9991","MEAN_MOTION_DOT":"-0.00000233","RCS_SIZE":"LARGE","COUNTRY_CODE":"US","MEAN_ANOMALY":"281.8751","NORAD_CAT_ID":"48356","OBJECT_ID":"2021-038D","PERIOD":"95.592","LAUNCH_DATE":"2021-05-04","EPHEMERIS_TYPE":"0","BSTAR":"0.00000326840000","ELEMENT_SET_NO":"999","MEAN_MOTION_DDOT":"0.0000000000000","ARG_OF_PERICENTER":"78.2424","CLASSIFICATION_TYPE":"U","GP_ID":"185798583","REV_AT_EPOCH":"2314","TIME_SYSTEM":"UTC","MEAN_MOTION":"15.06405203","OBJECT_TYPE":"PAYLOAD","ECCENTRICITY":"0.00016620","INCLINATION":"53.0671"},{"ECCENTRICITY":"0.00023640","INCLINATION":"53.0551","TIME_SYSTEM":"UTC","REV_AT_EPOCH":"2315","GP_ID":"185799177","OBJECT_TYPE":"PAYLOAD","MEAN_MOTION":"15.06398936","MEAN_MOTION_DDOT":"0.0000000000000","ELEMENT_SET_NO":"999","BSTAR":"0.00003831400000","EPHEMERIS_TYPE":"0","CLASSIFICATION_TYPE":"U","ARG_OF_PERICENTER":"89.4888","COUNTRY_CODE":"US","RCS_SIZE":"LARGE","LAUNCH_DATE":"2021-05-04","PERIOD":"95.592","OBJECT_ID":"2021-038E","NORAD_CAT_ID":"48357","MEAN_ANOMALY":"270.6372","MEAN_MOTION_DOT":"0.00000289","REF_FRAME":"TEME","TLE_LINE1":"1 48357U 21038E   21272.73731059  .00000289  00000-0  38314-4 0  9992","FILE":"3135219","MEAN_ELEMENT_THEORY":"SGP4","OBJECT_NAME":"STARLINK-2636","TLE_LINE2":"2 48357  53.0551  82.8359 0002364  89.4888 270.6372 15.06398936 23151","CENTER_NAME":"EARTH","EPOCH":"2021-09-29T17:41:43.634976","SITE":"AFETR","APOAPSIS":"548.854","RA_OF_ASC_NODE":"82.8359","DECAY_DATE":null,"SEMIMAJOR_AXIS":"6925.352","PERIAPSIS":"545.580"},{"MEAN_MOTION_DOT":"0.00001305","TLE_LINE1":"1 48358U 21038F   21272.46824142  .00001305  00000-0  10656-3 0  9997","FILE":"3134986","MEAN_ELEMENT_THEORY":"SGP4","OBJECT_NAME":"STARLINK-2624","REF_FRAME":"TEME","CENTER_NAME":"EARTH","EPOCH":"2021-09-29T11:14:16.058688","SITE":"AFETR","APOAPSIS":"548.636","TLE_LINE2":"2 48358  53.0518  84.0619 0002007  87.6574 272.4644 15.06389354 22519","RA_OF_ASC_NODE":"84.0619","DECAY_DATE":null,"PERIAPSIS":"545.856","SEMIMAJOR_AXIS":"6925.381","INCLINATION":"53.0518","ECCENTRICITY":"0.00020070","OBJECT_TYPE":"PAYLOAD","MEAN_MOTION":"15.06389354","TIME_SYSTEM":"UTC","REV_AT_EPOCH":"2251","GP_ID":"185793677","CLASSIFICATION_TYPE":"U","ARG_OF_PERICENTER":"87.6574","MEAN_MOTION_DDOT":"0.0000000000000","ELEMENT_SET_NO":"999","BSTAR":"0.00010656000000","EPHEMERIS_TYPE":"0","LAUNCH_DATE":"2021-05-04","PERIOD":"95.593","OBJECT_ID":"2021-038F","MEAN_ANOMALY":"272.4644","NORAD_CAT_ID":"48358","COUNTRY_CODE":"US","RCS_SIZE":"LARGE"},{"EPHEMERIS_TYPE":"0","BSTAR":"-0.00002234700000","ELEMENT_SET_NO":"999","MEAN_MOTION_DDOT":"0.0000000000000","ARG_OF_PERICENTER":"95.1092","CLASSIFICATION_TYPE":"U","RCS_SIZE":"LARGE","COUNTRY_CODE":"US","NORAD_CAT_ID":"48359","MEAN_ANOMALY":"265.0119","OBJECT_ID":"2021-038G","PERIOD":"95.593","LAUNCH_DATE":"2021-05-04","ECCENTRICITY":"0.00019390","INCLINATION":"53.0555","GP_ID":"185793895","REV_AT_EPOCH":"2251","TIME_SYSTEM":"UTC","MEAN_MOTION":"15.06392586","OBJECT_TYPE":"PAYLOAD","TLE_LINE2":"2 48359  53.0555  84.0580 0001939  95.1092 265.0119 15.06392586 22516","APOAPSIS":"548.579","SITE":"AFETR","EPOCH":"2021-09-29T11:08:57.691968","CENTER_NAME":"EARTH","PERIAPSIS":"545.893","DECAY_DATE":null,"SEMIMAJOR_AXIS":"6925.371","RA_OF_ASC_NODE":"84.0580","MEAN_MOTION_DOT":"-0.00000614","REF_FRAME":"TEME","OBJECT_NAME":"STARLINK-2628","FILE":"3134986","MEAN_ELEMENT_THEORY":"SGP4","TLE_LINE1":"1 48359U 21038G   21272.46455662 -.00000614  00000-0 -22347-4 0  9990"},{"TLE_LINE2":"2 48360  53.0546  84.0704 0002021  82.4429 277.6789 15.06391022 22518","APOAPSIS":"548.641","EPOCH":"2021-09-29T11:03:39.506688","SITE":"AFETR","CENTER_NAME":"EARTH","SEMIMAJOR_AXIS":"6925.376","DECAY_DATE":null,"PERIAPSIS":"545.841","RA_OF_ASC_NODE":"84.0704","MEAN_MOTION_DOT":"-0.00000157","REF_FRAME":"TEME","OBJECT_NAME":"STARLINK-2622","FILE":"3134986","MEAN_ELEMENT_THEORY":"SGP4","TLE_LINE1":"1 48360U 21038H   21272.46087392 -.00000157  00000-0  83443-5 0  9999","EPHEMERIS_TYPE":"0","BSTAR":"0.00000834430000","ELEMENT_SET_NO":"999","MEAN_MOTION_DDOT":"0.0000000000000","ARG_OF_PERICENTER":"82.4429","CLASSIFICATION_TYPE":"U","RCS_SIZE":"LARGE","COUNTRY_CODE":"US","NORAD_CAT_ID":"48360","MEAN_ANOMALY":"277.6789","OBJECT_ID":"2021-038H","PERIOD":"95.593","LAUNCH_DATE":"2021-05-04","ECCENTRICITY":"0.00020210","INCLINATION":"53.0546","GP_ID":"185793459","REV_AT_EPOCH":"2251","TIME_SYSTEM":"UTC","MEAN_MOTION":"15.06391022","OBJECT_TYPE":"PAYLOAD"},{"OBJECT_TYPE":"PAYLOAD","MEAN_MOTION":"15.06399597","REV_AT_EPOCH":"2251","TIME_SYSTEM":"UTC","GP_ID":"185793568","INCLINATION":"53.0544","ECCENTRICITY":"0.00014020","LAUNCH_DATE":"2021-05-04","PERIOD":"95.592","OBJECT_ID":"2021-038J","NORAD_CAT_ID":"48361","MEAN_ANOMALY":"257.5611","COUNTRY_CODE":"US","RCS_SIZE":"LARGE","CLASSIFICATION_TYPE":"U","ARG_OF_PERICENTER":"102.5535","ELEMENT_SET_NO":"999","MEAN_MOTION_DDOT":"0.0000000000000","BSTAR":"0.00011578000000","EPHEMERIS_TYPE":"0","TLE_LINE1":"1 48361U 21038J   21272.45717864  .00001443  00000-0  11578-3 0  9999","FILE":"3134986","MEAN_ELEMENT_THEORY":"SGP4","OBJECT_NAME":"STARLINK-2591","REF_FRAME":"TEME","MEAN_MOTION_DOT":"0.00001443","RA_OF_ASC_NODE":"84.1737","PERIAPSIS":"546.244","DECAY_DATE":null,"SEMIMAJOR_AXIS":"6925.350","CENTER_NAME":"EARTH","EPOCH":"2021-09-29T10:58:20.234496","SITE":"AFETR","APOAPSIS":"548.186","TLE_LINE2":"2 48361  53.0544  84.1737 0001402 102.5535 257.5611 15.06399597 22514"},{"RA_OF_ASC_NODE":"84.9081","DECAY_DATE":null,"PERIAPSIS":"550.688","SEMIMAJOR_AXIS":"6930.353","TLE_LINE2":"2 48362  53.0544  84.9081 0002208  86.7574 273.3667 15.04768594 22484","CENTER_NAME":"EARTH","APOAPSIS":"553.748","SITE":"AFETR","EPOCH":"2021-09-29T04:21:45.913824","REF_FRAME":"TEME","TLE_LINE1":"1 48362U 21038K   21272.18178141  .00001243  00000-0  10665-3 0  9993","OBJECT_NAME":"STARLINK-2578","FILE":"3134986","MEAN_ELEMENT_THEORY":"SGP4","MEAN_MOTION_DOT":"0.00001243","COUNTRY_CODE":"US","RCS_SIZE":"LARGE","PERIOD":"95.696","LAUNCH_DATE":"2021-05-04","NORAD_CAT_ID":"48362","MEAN_ANOMALY":"273.3667","OBJECT_ID":"2021-038K","BSTAR":"0.00010665000000","ELEMENT_SET_NO":"999","MEAN_MOTION_DDOT":"0.0000000000000","EPHEMERIS_TYPE":"0","CLASSIFICATION_TYPE":"U","ARG_OF_PERICENTER":"86.7574","REV_AT_EPOCH":"2248","TIME_SYSTEM":"UTC","GP_ID":"185793350","MEAN_MOTION":"15.04768594","OBJECT_TYPE":"PAYLOAD","ECCENTRICITY":"0.00022080","INCLINATION":"53.0544"},{"RA_OF_ASC_NODE":"79.1929","DECAY_DATE":null,"SEMIMAJOR_AXIS":"6925.316","PERIAPSIS":"546.094","CENTER_NAME":"EARTH","APOAPSIS":"548.267","SITE":"AFETR","EPOCH":"2021-09-29T10:24:30.646656","TLE_LINE2":"2 48363  53.0556  79.1929 0001569  96.8049 263.3118 15.06410654 22587","TLE_LINE1":"1 48363U 21038L   21272.43368804 -.00000957  00000-0 -45356-4 0  9998","FILE":"3134986","OBJECT_NAME":"STARLINK-2626","MEAN_ELEMENT_THEORY":"SGP4","REF_FRAME":"TEME","MEAN_MOTION_DOT":"-0.00000957","PERIOD":"95.591","LAUNCH_DATE":"2021-05-04","NORAD_CAT_ID":"48363","MEAN_ANOMALY":"263.3118","OBJECT_ID":"2021-038L","COUNTRY_CODE":"US","RCS_SIZE":"LARGE","CLASSIFICATION_TYPE":"U","ARG_OF_PERICENTER":"96.8049","BSTAR":"-0.00004535600000","MEAN_MOTION_DDOT":"0.0000000000000","ELEMENT_SET_NO":"999","EPHEMERIS_TYPE":"0","MEAN_MOTION":"15.06410654","OBJECT_TYPE":"PAYLOAD","REV_AT_EPOCH":"2258","TIME_SYSTEM":"UTC","GP_ID":"185794005","INCLINATION":"53.0556","ECCENTRICITY":"0.00015690"},{"INCLINATION":"53.0556","ECCENTRICITY":"0.00018780","OBJECT_TYPE":"PAYLOAD","MEAN_MOTION":"15.06397222","GP_ID":"185793787","REV_AT_EPOCH":"2258","TIME_SYSTEM":"UTC","ARG_OF_PERICENTER":"94.8206","CLASSIFICATION_TYPE":"U","EPHEMERIS_TYPE":"0","MEAN_MOTION_DDOT":"0.0000000000000","ELEMENT_SET_NO":"999","BSTAR":"-0.00000693830000","OBJECT_ID":"2021-038M","MEAN_ANOMALY":"265.2997","NORAD_CAT_ID":"48364","LAUNCH_DATE":"2021-05-04","PERIOD":"95.592","RCS_SIZE":"LARGE","COUNTRY_CODE":"US","MEAN_MOTION_DOT":"-0.00000385","OBJECT_NAME":"STARLINK-2611","FILE":"3134986","MEAN_ELEMENT_THEORY":"SGP4","TLE_LINE1":"1 48364U 21038M   21272.42904988 -.00000385  00000-0 -69383-5 0  9999","REF_FRAME":"TEME","EPOCH":"2021-09-29T10:17:49.909632","SITE":"AFETR","APOAPSIS":"548.523","CENTER_NAME":"EARTH","TLE_LINE2":"2 48364  53.0556  79.2133 0001878  94.8206 265.2997 15.06397222 22583","DECAY_DATE":null,"SEMIMAJOR_AXIS":"6925.357","PERIAPSIS":"545.921","RA_OF_ASC_NODE":"79.2133"}];
